NORAD_CAT_ID,OBJECT_NAME,OBJECT_TYPE,EPOCH,MEAN_MOTION,ECCENTRICITY,INCLINATION,RA_OF_ASC_NODE,ARG_OF_PERICENTER,MEAN_ANOMALY,BSTAR,MEAN_MOTION_DOT,MEAN_MOTION_DDOT,TLE_LINE0,TLE_LINE1,TLE_LINE2,SEMIMAJOR_AXIS,PERIOD,APOGEE,PERIGEE,DECAYED
51870.0,STARLINK-3591,PAYLOAD,2024-05-04 05:38:48,15.08832782,0.0001242,53.2158,156.8643,99.014,261.0993,2.189e-05,6e-07,0.0,0 STARLINK-3591,1 51870U 22022U   24125.23528156  .00000060  00000-0  21890-4 0  9995,2 51870  53.2158 156.8643 0001242  99.0140 261.0993 15.08832782121347,6917.902,95.438,540.627,538.908,0.0
51870.0,STARLINK-3591,PAYLOAD,2024-05-05 11:51:08,15.08836895,0.0001195,53.216,151.2152,90.0895,270.0234,-7.8143e-06,-4.12e-06,0.0,0 STARLINK-3591,1 51870U 22022U   24126.49385117 -.00000412  00000-0 -78143-5 0  9999,2 51870  53.2160 151.2152 0001195  90.0895 270.0234 15.08836895121537,6917.89,95.438,540.582,538.928,0.0
51870.0,STARLINK-3591,PAYLOAD,2024-05-05 18:12:41,15.08839564,0.0001243,53.216,150.0262,91.7326,268.3808,1.0013e-05,-1.29e-06,0.0,0 STARLINK-3591,1 51870U 22022U   24126.75880992 -.00000129  00000-0  10013-4 0  9994,2 51870  53.2160 150.0262 0001243  91.7326 268.3808 15.08839564121574,6917.882,95.438,540.607,538.887,0.0
51870.0,STARLINK-3591,PAYLOAD,2024-05-06 08:31:09,15.08840144,0.0001233,53.2159,147.3482,93.271,266.8423,0.00037356,5.662e-05,0.0,0 STARLINK-3591,1 51870U 22022U   24127.35497366  .00005662  00000-0  37356-3 0  9994,2 51870  53.2159 147.3482 0001233  93.2710 266.8423 15.08840144121660,6917.88,95.438,540.598,538.892,0.0
51870.0,STARLINK-3591,PAYLOAD,2024-05-06 18:03:28,15.0884712,0.0001289,53.216,145.5641,97.1434,262.9704,0.00041587,6.338e-05,0.0,0 STARLINK-3591,1 51870U 22022U   24127.75241179  .00006338  00000-0  41587-3 0  9999,2 51870  53.2160 145.5641 0001289  97.1434 262.9704 15.08847120121723,6917.859,95.437,540.615,538.832,0.0
51870.0,STARLINK-3591,PAYLOAD,2024-05-07 09:57:19,15.08861364,0.0001262,53.2154,142.5903,98.6269,261.4866,0.00049087,7.537e-05,0.0,0 STARLINK-3591,1 51870U 22022U   24128.41480362  .00007537  00000-0  49087-3 0  9997,2 51870  53.2154 142.5903 0001262  98.6269 261.4866 15.08861364121827,6917.815,95.436,540.553,538.807,0.0
51870.0,STARLINK-3591,PAYLOAD,2024-05-07 17:54:14,15.08863766,0.000129,53.2149,141.1045,93.1566,266.9574,0.00042506,6.488e-05,0.0,0 STARLINK-3591,1 51870U 22022U   24128.74599928  .00006488  00000-0  42506-3 0  9995,2 51870  53.2149 141.1045 0001290  93.1566 266.9574 15.08863766121873,6917.808,95.436,540.565,538.78,0.0
51870.0,STARLINK-3591,PAYLOAD,2024-05-08 05:01:56,15.08845258,0.0001378,53.2153,139.0216,99.0469,261.0679,-1.9879e-05,-6.04e-06,0.0,0 STARLINK-3591,1 51870U 22022U   24129.20968120 -.00000604  00000-0 -19879-4 0  9995,2 51870  53.2153 139.0216 0001378  99.0469 261.0679 15.08845258121944,6917.864,95.437,540.683,538.776,0.0
51870.0,STARLINK-3591,PAYLOAD,2024-05-08 08:12:42,15.08845218,0.0001331,53.2144,138.4265,91.324,268.7905,-1.6823e-05,-5.56e-06,0.0,0 STARLINK-3591,1 51870U 22022U   24129.34216129 -.00000556  00000-0 -16823-4 0  9997,2 51870  53.2144 138.4265 0001331  91.3240 268.7905 15.08845218121966,6917.864,95.437,540.65,538.809,0.0
51870.0,STARLINK-3591,PAYLOAD,2024-05-08 17:45:01,15.08844915,0.0001369,53.2146,136.6427,92.1865,267.9284,0.00013227,1.818e-05,0.0,0 STARLINK-3591,1 51870U 22022U   24129.73960152  .00001818  00000-0  13227-3 0  9996,2 51870  53.2146 136.6427 0001369  92.1865 267.9284 15.08844915122023,6917.865,95.437,540.677,538.783,0.0
51870.0,STARLINK-3591,PAYLOAD,2024-05-09 04:52:43,15.08834858,0.0001443,53.2145,134.5616,94.8981,265.2176,8.3562e-05,1.042e-05,0.0,0 STARLINK-3591,1 51870U 22022U   24130.20328603  .00001042  00000-0  83562-4 0  9998,2 51870  53.2145 134.5616 0001443  94.8981 265.2176 15.08834858122093,6917.896,95.438,540.759,538.763,0.0
51870.0,STARLINK-3591,PAYLOAD,2024-05-09 09:38:53,15.08839596,0.0001406,53.2149,133.6694,92.7031,267.4122,1.7979e-05,-2e-08,0.0,0 STARLINK-3591,1 51870U 22022U   24130.40200578 -.00000002  00000-0  17979-4 0  9995,2 51870  53.2149 133.6694 0001406  92.7031 267.4122 15.08839596122128,6917.882,95.438,540.719,538.774,0.0
51870.0,STARLINK-3591,PAYLOAD,2024-05-09 17:35:48,15.0884711,0.0001401,53.2157,132.1829,92.5678,267.5474,0.00011245,1.502e-05,0.0,0 STARLINK-3591,1 51870U 22022U   24130.73320463  .00001502  00000-0  11245-3 0  9991,2 51870  53.2157 132.1829 0001401  92.5678 267.5474 15.08847110122178,6917.859,95.437,540.693,538.754,0.0
51870.0,STARLINK-3591,PAYLOAD,2024-05-10 06:18:54,15.08844427,0.000144,53.2158,129.8039,93.039,267.0767,0.00024602,3.63e-05,0.0,0 STARLINK-3591,1 51870U 22022U   24131.26312735  .00003630  00000-0  24602-3 0  9998,2 51870  53.2158 129.8039 0001440  93.0390 267.0767 15.08844427122252,6917.867,95.437,540.728,538.736,0.0
51870.0,STARLINK-3591,PAYLOAD,2024-05-10 17:26:35,15.08848469,0.0001431,53.2161,127.7222,93.696,266.4196,0.00027114,4.031e-05,0.0,0 STARLINK-3591,1 51870U 22022U   24131.72680554  .00004031  00000-0  27114-3 0  9993,2 51870  53.2161 127.7222 0001431  93.6960 266.4196 15.08848469122323,6917.855,95.437,540.709,538.73,0.0
51870.0,STARLINK-3591,PAYLOAD,2024-05-11 04:34:18,15.08844567,0.000147,53.2168,125.6412,93.5408,266.5753,0.00022232,3.252e-05,0.0,0 STARLINK-3591,1 51870U 22022U   24132.19048722  .00003252  00000-0  22232-3 0  9990,2 51870  53.2168 125.6412 0001470  93.5408 266.5753 15.08844567122399,6917.866,95.437,540.748,538.715,0.0
51870.0,STARLINK-3591,PAYLOAD,2024-05-11 06:09:41,15.08848032,0.0001621,53.216,125.3418,98.061,262.0566,0.00023961,3.528e-05,0.0,0 STARLINK-3591,1 51870U 22022U   24132.25672473  .00003528  00000-0  23961-3 0  9999,2 51870  53.2160 125.3418 0001621  98.0610 262.0566 15.08848032122403,6917.856,95.437,540.842,538.599,0.0
51870.0,STARLINK-3591,PAYLOAD,2024-05-12 06:00:28,15.0882194,0.0001359,53.2163,120.8816,109.6007,250.5132,-0.00044781,-7.404e-05,0.0,0 STARLINK-3591,1 51870U 22022U   24133.25032775 -.00007404  00000-0 -44781-3 0  9997,2 51870  53.2163 120.8816 0001359 109.6007 250.5132 15.08821940122551,6917.936,95.439,540.741,538.86,0.0
51870.0,STARLINK-3591,PAYLOAD,2024-05-12 23:29:43,15.08818775,0.0001255,53.2164,117.6124,115.0288,245.0835,-0.00016217,-2.866e-05,0.0,0 STARLINK-3591,1 51870U 22022U   24133.97897935 -.00002866  00000-0 -16217-3 0  9993,2 51870  53.2164 117.6124 0001255 115.0288 245.0835 15.08818775122668,6917.945,95.439,540.678,538.942,0.0
51870.0,STARLINK-3591,PAYLOAD,2024-05-13 05:51:16,15.08819194,0.0001389,53.2165,116.4236,117.4671,242.6462,-2.7098e-05,-7.19e-06,0.0,0 STARLINK-3591,1 51870U 22022U   24134.24394273 -.00000719  00000-0 -27098-4 0  9996,2 51870  53.2165 116.4236 0001389 117.4671 242.6462 15.08819194122700,6917.944,95.439,540.77,538.848,0.0
51870.0,STARLINK-3591,PAYLOAD,2024-05-13 21:45:08,15.08825126,0.0001246,53.2155,113.4483,116.3397,243.7724,0.00038588,5.856e-05,0.0,0 STARLINK-3591,1 51870U 22022U   24134.90635111  .00005856  00000-0  38588-3 0  9998,2 51870  53.2155 113.4483 0001246 116.3397 243.7724 15.08825126122801,6917.926,95.438,540.653,538.929,0.0
51870.0,STARLINK-3591,PAYLOAD,2024-05-14 05:42:04,15.08843707,0.0001279,53.2156,111.9622,118.5078,241.6043,0.00067618,0.00010491,0.0,0 STARLINK-3591,1 51870U 22022U   24135.23754874  .00010491  00000-0  67618-3 0  9990,2 51870  53.2156 111.9622 0001279 118.5078 241.6043 15.08843707122857,6917.869,95.437,540.619,538.849,0.0
51870.0,STARLINK-3591,PAYLOAD,2024-05-14 08:52:50,15.08846909,0.0001303,53.2157,111.3678,118.987,241.1253,0.000685,0.00010633,0.0,0 STARLINK-3591,1 51870U 22022U   24135.37002824  .00010633  00000-0  68500-3 0  9995,2 51870  53.2157 111.3678 0001303 118.9870 241.1253 15.08846909122872,6917.859,95.437,540.626,538.823,0.0
51870.0,STARLINK-3591,PAYLOAD,2024-05-14 15:14:22,15.08856537,0.0001277,53.2157,110.1782,119.2707,240.8413,0.00078209,0.00012187,0.0,0 STARLINK-3591,1 51870U 22022U   24135.63498522  .00012187  00000-0  78209-3 0  9991,2 51870  53.2157 110.1782 0001277 119.2707 240.8413 15.08856537122915,6917.83,95.437,540.578,538.811,0.0
51870.0,STARLINK-3591,PAYLOAD,2024-05-15 08:43:36,15.08882645,0.0001265,53.2156,106.9072,118.8911,241.2208,0.0011465,0.00018027,0.0,0 STARLINK-3591,1 51870U 22022U   24136.36361123  .00018027  00000-0  11465-2 0  9997,2 51870  53.2156 106.9072 0001265 118.8911 241.2208 15.08882645123027,6917.75,95.435,540.49,538.74,0.0
51870.0,STARLINK-3591,PAYLOAD,2024-05-16 03:48:11,15.08870338,0.0005328,53.2154,103.3364,170.5279,189.5815,-7.0747e-05,-1.417e-05,0.0,0 STARLINK-3591,1 51870U 22022U   24137.15847208 -.00001417  00000-0 -70747-4 0  9995,2 51870  53.2154 103.3364 0005328 170.5279 189.5815 15.08870338123143,6917.788,95.436,543.338,535.967,0.0
51870.0,STARLINK-3591,PAYLOAD,2024-05-16 05:23:36,15.08862149,0.0001246,53.2161,103.0418,131.7691,228.3407,0.00020803,3.026e-05,0.0,0 STARLINK-3591,1 51870U 22022U   24137.22472308  .00003026  00000-0  20803-3 0  9991,2 51870  53.2161 103.0418 0001246 131.7691 228.3407 15.08862149123151,6917.813,95.436,540.54,538.816,0.0
51870.0,STARLINK-3591,PAYLOAD,2024-05-16 14:55:54,15.08870489,0.00011,53.2172,101.2544,90.7541,269.3577,0.00044555,6.816e-05,0.0,0 STARLINK-3591,1 51870U 22022U   24137.62215835  .00006816  00000-0  44555-3 0  9995,2 51870  53.2172 101.2544 0001100  90.7541 269.3577 15.08870489123216,6917.787,95.436,540.413,538.891,0.0
51870.0,STARLINK-3591,PAYLOAD,2024-05-17 03:39:00,15.0882812,0.0001186,53.2168,98.8771,106.9521,253.1601,-0.00038352,-6.384e-05,0.0,0 STARLINK-3591,1 51870U 22022U   24138.15208923 -.00006384  00000-0 -38352-3 0  9994,2 51870  53.2168  98.8771 0001186 106.9521 253.1601 15.08828120123298,6917.917,95.438,540.602,538.961,0.0
51870.0,STARLINK-3591,PAYLOAD,2024-05-17 14:46:42,15.08839985,0.0001902,53.2175,96.7922,138.7432,221.3704,0.00021673,3.163e-05,0.0,0 STARLINK-3591,1 51870U 22022U   24138.61576915  .00003163  00000-0  21673-3 0  9992,2 51870  53.2175  96.7922 0001902 138.7432 221.3704 15.08839985123361,6917.88,95.438,541.061,538.43,0.0
